[{"COMMENT":"GENERATED VIA SPACETRACK.ORG API","ORIGINATOR":"18 SPCS","NORAD_CAT_ID":"43477","OBJECT_NAME":"GRACE-FO 2","OBJECT_TYPE":"PAYLOAD","CLASSIFICATION_TYPE":"U","INTLDES":"18047B","EPOCH":"2023-11-23 22:46:42","EPOCH_MICROSECONDS":"190752","MEAN_MOTION":"15.27392791","ECCENTRICITY":"0.0015694","INCLINATION":"88.981","RA_OF_ASC_NODE":"327.4335","ARG_OF_PERICENTER":"133.6415","MEAN_ANOMALY":"226.6139","EPHEMERIS_TYPE":"0","ELEMENT_SET_NO":"999","REV_AT_EPOCH":"30637","BSTAR":"0.00017503","MEAN_MOTION_DOT":"0.00004736","MEAN_MOTION_DDOT":"0","FILE":"4104120","TLE_LINE0":"0 GRACE-FO 2","TLE_LINE1":"1 43477U 18047B   23327.94909943  .00004736  00000-0  17503-3 0  9998","TLE_LINE2":"2 43477  88.9810 327.4335 0015694 133.6415 226.6139 15.27392791306370","OBJECT_ID":"2018-047B","OBJECT_NUMBER":"43477","SEMIMAJOR_AXIS":"6861.747","PERIOD":"94.278","APOGEE":"494.381","PERIGEE":"472.843","DECAYED":"0"},{"COMMENT":"GENERATED VIA SPACETRACK.ORG API","ORIGINATOR":"18 SPCS","NORAD_CAT_ID":"43477","OBJECT_NAME":"GRACE-FO 2","OBJECT_TYPE":"PAYLOAD","CLASSIFICATION_TYPE":"U","INTLDES":"18047B","EPOCH":"2023-11-24 12:55:48","EPOCH_MICROSECONDS":"88992","MEAN_MOTION":"15.27399206","ECCENTRICITY":"0.001579","INCLINATION":"88.9808","RA_OF_ASC_NODE":"327.3526","ARG_OF_PERICENTER":"131.7391","MEAN_ANOMALY":"228.5212","EPHEMERIS_TYPE":"0","ELEMENT_SET_NO":"999","REV_AT_EPOCH":"30646","BSTAR":"0.00018388","MEAN_MOTION_DOT":"0.00004975","MEAN_MOTION_DDOT":"0","FILE":"4105170","TLE_LINE0":"0 GRACE-FO 2","TLE_LINE1":"1 43477U 18047B   23328.53875103  .00004975  00000-0  18388-3 0  9991","TLE_LINE2":"2 43477  88.9808 327.3526 0015790 131.7391 228.5212 15.27399206306468","OBJECT_ID":"2018-047B","OBJECT_NUMBER":"43477","SEMIMAJOR_AXIS":"6861.728","PERIOD":"94.278","APOGEE":"494.427","PERIGEE":"472.758","DECAYED":"0"},{"COMMENT":"GENERATED VIA SPACETRACK.ORG API","ORIGINATOR":"18 SPCS","NORAD_CAT_ID":"43477","OBJECT_NAME":"GRACE-FO 2","OBJECT_TYPE":"PAYLOAD","CLASSIFICATION_TYPE":"U","INTLDES":"18047B","EPOCH":"2023-11-24 22:21:51","EPOCH_MICROSECONDS":"901344","MEAN_MOTION":"15.27403379","ECCENTRICITY":"0.0015839","INCLINATION":"88.9807","RA_OF_ASC_NODE":"327.2987","ARG_OF_PERICENTER":"130.4046","MEAN_ANOMALY":"229.8588","EPHEMERIS_TYPE":"0","ELEMENT_SET_NO":"999","REV_AT_EPOCH":"30652","BSTAR":"0.00018399","MEAN_MOTION_DOT":"0.00004979","MEAN_MOTION_DDOT":"0","FILE":"4105877","TLE_LINE0":"0 GRACE-FO 2","TLE_LINE1":"1 43477U 18047B   23328.93185071  .00004979  00000-0  18399-3 0  9999","TLE_LINE2":"2 43477  88.9807 327.2987 0015839 130.4046 229.8588 15.27403379306528","OBJECT_ID":"2018-047B","OBJECT_NUMBER":"43477","SEMIMAJOR_AXIS":"6861.715","PERIOD":"94.278","APOGEE":"494.448","PERIGEE":"472.712","DECAYED":"0"},{"COMMENT":"GENERATED VIA SPACETRACK.ORG API","ORIGINATOR":"18 SPCS","NORAD_CAT_ID":"43477","OBJECT_NAME":"GRACE-FO 2","OBJECT_TYPE":"PAYLOAD","CLASSIFICATION_TYPE":"U","INTLDES":"18047B","EPOCH":"2023-11-25 03:04:53","EPOCH_MICROSECONDS":"766048","MEAN_MOTION":"15.27405521","ECCENTRICITY":"0.0015864","INCLINATION":"88.9806","RA_OF_ASC_NODE":"327.2717","ARG_OF_PERICENTER":"129.7775","MEAN_ANOMALY":"230.4874","EPHEMERIS_TYPE":"0","ELEMENT_SET_NO":"999","REV_AT_EPOCH":"30655","BSTAR":"0.00018519","MEAN_MOTION_DOT":"0.00005011","MEAN_MOTION_DDOT":"0","FILE":"4105900","TLE_LINE0":"0 GRACE-FO 2","TLE_LINE1":"1 43477U 18047B   23329.12840007  .00005011  00000-0  18519-3 0  9990","TLE_LINE2":"2 43477  88.9806 327.2717 0015864 129.7775 230.4874 15.27405521306556","OBJECT_ID":"2018-047B","OBJECT_NUMBER":"43477","SEMIMAJOR_AXIS":"6861.709","PERIOD":"94.278","APOGEE":"494.459","PERIGEE":"472.688","DECAYED":"0"},{"COMMENT":"GENERATED VIA SPACETRACK.ORG API","ORIGINATOR":"18 SPCS","NORAD_CAT_ID":"43477","OBJECT_NAME":"GRACE-FO 2","OBJECT_TYPE":"PAYLOAD","CLASSIFICATION_TYPE":"U","INTLDES":"18047B","EPOCH":"2023-11-25 14:05:18","EPOCH_MICROSECONDS":"27744","MEAN_MOTION":"15.27411938","ECCENTRICITY":"0.0015929","INCLINATION":"88.9805","RA_OF_ASC_NODE":"327.2087","ARG_OF_PERICENTER":"128.2958","MEAN_ANOMALY":"231.9727","EPHEMERIS_TYPE":"0","ELEMENT_SET_NO":"999","REV_AT_EPOCH":"30662","BSTAR":"0.00020777","MEAN_MOTION_DOT":"0.0000562","MEAN_MOTION_DDOT":"0","FILE":"4106483","TLE_LINE0":"0 GRACE-FO 2","TLE_LINE1":"1 43477U 18047B   23329.58701421  .00005620  00000-0  20777-3 0  9991","TLE_LINE2":"2 43477  88.9805 327.2087 0015929 128.2958 231.9727 15.27411938306624","OBJECT_ID":"2018-047B","OBJECT_NUMBER":"43477","SEMIMAJOR_AXIS":"6861.689","PERIOD":"94.277","APOGEE":"494.484","PERIGEE":"472.624","DECAYED":"0"},{"COMMENT":"GENERATED VIA SPACETRACK.ORG API","ORIGINATOR":"18 SPCS","NORAD_CAT_ID":"43477","OBJECT_NAME":"GRACE-FO 2","OBJECT_TYPE":"PAYLOAD","CLASSIFICATION_TYPE":"U","INTLDES":"18047B","EPOCH":"2023-11-25 21:57:00","EPOCH_MICROSECONDS":"921600","MEAN_MOTION":"15.27419185","ECCENTRICITY":"0.0015975","INCLINATION":"88.9805","RA_OF_ASC_NODE":"327.1638","ARG_OF_PERICENTER":"127.2123","MEAN_ANOMALY":"233.0587","EPHEMERIS_TYPE":"0","ELEMENT_SET_NO":"999","REV_AT_EPOCH":"30667","BSTAR":"0.00026868","MEAN_MOTION_DOT":"0.00007261","MEAN_MOTION_DDOT":"0","FILE":"4106487","TLE_LINE0":"0 GRACE-FO 2","TLE_LINE1":"1 43477U 18047B   23329.91459400  .00007261  00000-0  26868-3 0  9995","TLE_LINE2":"2 43477  88.9805 327.1638 0015975 127.2123 233.0587 15.27419185306673","OBJECT_ID":"2018-047B","OBJECT_NUMBER":"43477","SEMIMAJOR_AXIS":"6861.668","PERIOD":"94.277","APOGEE":"494.494","PERIGEE":"472.571","DECAYED":"0"},{"COMMENT":"GENERATED VIA SPACETRACK.ORG API","ORIGINATOR":"18 SPCS","NORAD_CAT_ID":"43477","OBJECT_NAME":"GRACE-FO 2","OBJECT_TYPE":"PAYLOAD","CLASSIFICATION_TYPE":"U","INTLDES":"18047B","EPOCH":"2023-11-26 12:06:06","EPOCH_MICROSECONDS":"99264","MEAN_MOTION":"15.27422007","ECCENTRICITY":"0.0016057","INCLINATION":"88.9804","RA_OF_ASC_NODE":"327.0828","ARG_OF_PERICENTER":"125.3174","MEAN_ANOMALY":"234.958","EPHEMERIS_TYPE":"0","ELEMENT_SET_NO":"999","REV_AT_EPOCH":"30676","BSTAR":"0.00019994","MEAN_MOTION_DOT":"0.00005411","MEAN_MOTION_DDOT":"0","FILE":"4107525","TLE_LINE0":"0 GRACE-FO 2","TLE_LINE1":"1 43477U 18047B   23330.50423726  .00005411  00000-0  19994-3 0  9991","TLE_LINE2":"2 43477  88.9804 327.0828 0016057 125.3174 234.9580 15.27422007306769","OBJECT_ID":"2018-047B","OBJECT_NUMBER":"43477","SEMIMAJOR_AXIS":"6861.659","PERIOD":"94.276","APOGEE":"494.542","PERIGEE":"472.506","DECAYED":"0"},{"COMMENT":"GENERATED VIA SPACETRACK.ORG API","ORIGINATOR":"18 SPCS","NORAD_CAT_ID":"43477","OBJECT_NAME":"GRACE-FO 2","OBJECT_TYPE":"PAYLOAD","CLASSIFICATION_TYPE":"U","INTLDES":"18047B","EPOCH":"2023-11-26 13:40:26","EPOCH_MICROSECONDS":"654016","MEAN_MOTION":"15.27422205","ECCENTRICITY":"0.0016063","INCLINATION":"88.9804","RA_OF_ASC_NODE":"327.0738","ARG_OF_PERICENTER":"125.1022","MEAN_ANOMALY":"235.1736","EPHEMERIS_TYPE":"0","ELEMENT_SET_NO":"999","REV_AT_EPOCH":"30677","BSTAR":"0.0001901","MEAN_MOTION_DOT":"0.00005146","MEAN_MOTION_DDOT":"0","FILE":"4107973","TLE_LINE0":"0 GRACE-FO 2","TLE_LINE1":"1 43477U 18047B   23330.56975294  .00005146  00000-0  19010-3 0  9993","TLE_LINE2":"2 43477  88.9804 327.0738 0016063 125.1022 235.1736 15.27422205306773","OBJECT_ID":"2018-047B","OBJECT_NUMBER":"43477","SEMIMAJOR_AXIS":"6861.659","PERIOD":"94.276","APOGEE":"494.546","PERIGEE":"472.502","DECAYED":"0"},{"COMMENT":"GENERATED VIA SPACETRACK.ORG API","ORIGINATOR":"18 SPCS","NORAD_CAT_ID":"43477","OBJECT_NAME":"GRACE-FO 2","OBJECT_TYPE":"PAYLOAD","CLASSIFICATION_TYPE":"U","INTLDES":"18047B","EPOCH":"2023-11-26 21:32:09","EPOCH_MICROSECONDS":"395808","MEAN_MOTION":"15.27425167","ECCENTRICITY":"0.0016104","INCLINATION":"88.9805","RA_OF_ASC_NODE":"327.0289","ARG_OF_PERICENTER":"124.0406","MEAN_ANOMALY":"236.2375","EPHEMERIS_TYPE":"0","ELEMENT_SET_NO":"999","REV_AT_EPOCH":"30682","BSTAR":"0.00017539","MEAN_MOTION_DOT":"0.00004751","MEAN_MOTION_DDOT":"0","FILE":"4108592","TLE_LINE0":"0 GRACE-FO 2","TLE_LINE1":"1 43477U 18047B   23330.89733097  .00004751  00000-0  17539-3 0  9997","TLE_LINE2":"2 43477  88.9805 327.0289 0016104 124.0406 236.2375 15.27425167306822","OBJECT_ID":"2018-047B","OBJECT_NUMBER":"43477","SEMIMAJOR_AXIS":"6861.650","PERIOD":"94.276","APOGEE":"494.565","PERIGEE":"472.465","DECAYED":"0"},{"COMMENT":"GENERATED VIA SPACETRACK.ORG API","ORIGINATOR":"18 SPCS","NORAD_CAT_ID":"43477","OBJECT_NAME":"GRACE-FO 2","OBJECT_TYPE":"PAYLOAD","CLASSIFICATION_TYPE":"U","INTLDES":"18047B","EPOCH":"2023-11-27 13:15:34","EPOCH_MICROSECONDS":"671168","MEAN_MOTION":"15.27433355","ECCENTRICITY":"0.0016195","INCLINATION":"88.9804","RA_OF_ASC_NODE":"326.9389","ARG_OF_PERICENTER":"121.9668","MEAN_ANOMALY":"238.3158","EPHEMERIS_TYPE":"0","ELEMENT_SET_NO":"999","REV_AT_EPOCH":"30692","BSTAR":"0.00018872","MEAN_MOTION_DOT":"0.00005111","MEAN_MOTION_DDOT":"0","FILE":"4109692","TLE_LINE0":"0 GRACE-FO 2","TLE_LINE1":"1 43477U 18047B   23331.55248462  .00005111  00000-0  18872-3 0  9990","TLE_LINE2":"2 43477  88.9804 326.9389 0016195 121.9668 238.3158 15.27433355306927","OBJECT_ID":"2018-047B","OBJECT_NUMBER":"43477","SEMIMAJOR_AXIS":"6861.625","PERIOD":"94.276","APOGEE":"494.603","PERIGEE":"472.378","DECAYED":"0"}]